[{"OBJECT_NAME":"NUSAT-49 (KLARA DAN VON NEUMANN)","OBJECT_ID":"2024-149AJ","EPOCH":"2026-04-04T16:31:25.023648","MEAN_MOTION":15.2960094,"ECCENTRICITY":0.00031046,"INCLINATION":97.3793,"RA_OF_ASC_NODE":176.4794,"ARG_OF_PERICENTER":163.0677,"MEAN_ANOMALY":197.0668,"EPHEMERIS_TYPE":0,"CLASSIFICATION_TYPE":"U","NORAD_CAT_ID":60500,"ELEMENT_SET_NO":999,"REV_AT_EPOCH":9089,"BSTAR":0.00053139132,"MEAN_MOTION_DOT":0.00015184,"MEAN_MOTION_DDOT":0},{"OBJECT_NAME":"FLOCK 4BE-11","OBJECT_ID":"2024-149AK","EPOCH":"2026-04-04T18:37:41.334240","MEAN_MOTION":15.4053611,"ECCENTRICITY":0.0004708,"INCLINATION":97.3715,"RA_OF_ASC_NODE":178.2053,"ARG_OF_PERICENTER":165.0286,"MEAN_ANOMALY":195.11,"EPHEMERIS_TYPE":0,"CLASSIFICATION_TYPE":"U","NORAD_CAT_ID":60501,"ELEMENT_SET_NO":999,"REV_AT_EPOCH":9104,"BSTAR":0.00067088,"MEAN_MOTION_DOT":0.00027229,"MEAN_MOTION_DDOT":0},{"OBJECT_NAME":"FLOCK 4BE-33","OBJECT_ID":"2024-149AL","EPOCH":"2026-04-04T18:41:19.673952","MEAN_MOTION":15.77379006,"ECCENTRICITY":0.0005541,"INCLINATION":97.3627,"RA_OF_ASC_NODE":180.696,"ARG_OF_PERICENTER":190.0675,"MEAN_ANOMALY":170.0481,"EPHEMERIS_TYPE":0,"CLASSIFICATION_TYPE":"U","NORAD_CAT_ID":60502,"ELEMENT_SET_NO":999,"REV_AT_EPOCH":9120,"BSTAR":0.0019162,"MEAN_MOTION_DOT":0.00326803,"MEAN_MOTION_DDOT":0},{"OBJECT_NAME":"FLOCK 4BE-10","OBJECT_ID":"2024-149AM","EPOCH":"2026-04-04T18:19:02.360928","MEAN_MOTION":15.97462233,"ECCENTRICITY":0.00066448,"INCLINATION":97.3595,"RA_OF_ASC_NODE":182.841,"ARG_OF_PERICENTER":260.284,"MEAN_ANOMALY":99.7687,"EPHEMERIS_TYPE":0,"CLASSIFICATION_TYPE":"U","NORAD_CAT_ID":60503,"ELEMENT_SET_NO":999,"REV_AT_EPOCH":9131,"BSTAR":0.0023353703,"MEAN_MOTION_DOT":0.01021859,"MEAN_MOTION_DDOT":0.0004980071},{"OBJECT_NAME":"YAM-7","OBJECT_ID":"2024-149AN","EPOCH":"2026-04-04T22:26:11.273280","MEAN_MOTION":15.30805706,"ECCENTRICITY":0.00036291,"INCLINATION":97.3799,"RA_OF_ASC_NODE":175.5347,"ARG_OF_PERICENTER":170.01,"MEAN_ANOMALY":190.1214,"EPHEMERIS_TYPE":0,"CLASSIFICATION_TYPE":"U","NORAD_CAT_ID":60504,"ELEMENT_SET_NO":999,"REV_AT_EPOCH":9084,"BSTAR":0.00034234915,"MEAN_MOTION_DOT":0.0001012,"MEAN_MOTION_DDOT":0},{"OBJECT_NAME":"FLOCK 4BE-24","OBJECT_ID":"2024-149AP","EPOCH":"2026-04-04T18:14:55.715712","MEAN_MOTION":15.40390397,"ECCENTRICITY":0.00047801,"INCLINATION":97.3728,"RA_OF_ASC_NODE":178.4347,"ARG_OF_PERICENTER":174.1053,"MEAN_ANOMALY":186.025,"EPHEMERIS_TYPE":0,"CLASSIFICATION_TYPE":"U","NORAD_CAT_ID":60505,"ELEMENT_SET_NO":999,"REV_AT_EPOCH":9105,"BSTAR":0.00065568931,"MEAN_MOTION_DOT":0.00026481,"MEAN_MOTION_DDOT":0},{"OBJECT_NAME":"LUR-1","OBJECT_ID":"2024-149AQ","EPOCH":"2026-04-04T18:41:52.671840","MEAN_MOTION":15.29141398,"ECCENTRICITY":0.000394,"INCLINATION":97.3758,"RA_OF_ASC_NODE":174.1869,"ARG_OF_PERICENTER":184.3075,"MEAN_ANOMALY":175.8132,"EPHEMERIS_TYPE":0,"CLASSIFICATION_TYPE":"U","NORAD_CAT_ID":60506,"ELEMENT_SET_NO":999,"REV_AT_EPOCH":9075,"BSTAR":0.00041016285,"MEAN_MOTION_DOT":0.00011534,"MEAN_MOTION_DDOT":0},{"OBJECT_NAME":"TANAGER-1","OBJECT_ID":"2024-149AR","EPOCH":"2026-04-04T21:12:19.784448","MEAN_MOTION":15.43811952,"ECCENTRICITY":0.00072255,"INCLINATION":97.3725,"RA_OF_ASC_NODE":188.6189,"ARG_OF_PERICENTER":198.9387,"MEAN_ANOMALY":161.1593,"EPHEMERIS_TYPE":0,"CLASSIFICATION_TYPE":"U","NORAD_CAT_ID":60507,"ELEMENT_SET_NO":999,"REV_AT_EPOCH":9172,"BSTAR":0.00052422346,"MEAN_MOTION_DOT":0.00023716,"MEAN_MOTION_DDOT":0},{"OBJECT_NAME":"EAGLEEYE","OBJECT_ID":"2024-149AS","EPOCH":"2026-04-04T18:37:56.029152","MEAN_MOTION":15.60545116,"ECCENTRICITY":0.00037441,"INCLINATION":97.3737,"RA_OF_ASC_NODE":184.7057,"ARG_OF_PERICENTER":170.5617,"MEAN_ANOMALY":189.5711,"EPHEMERIS_TYPE":0,"CLASSIFICATION_TYPE":"U","NORAD_CAT_ID":60508,"ELEMENT_SET_NO":999,"REV_AT_EPOCH":9145,"BSTAR":0.0010648254,"MEAN_MOTION_DOT":0.00088531,"MEAN_MOTION_DDOT":0},{"OBJECT_NAME":"FLOCK 4BE-29","OBJECT_ID":"2024-149AT","EPOCH":"2026-04-04T18:21:13.716576","MEAN_MOTION":15.41722844,"ECCENTRICITY":0.00032387,"INCLINATION":97.3817,"RA_OF_ASC_NODE":179.6701,"ARG_OF_PERICENTER":176.3857,"MEAN_ANOMALY":183.7414,"EPHEMERIS_TYPE":0,"CLASSIFICATION_TYPE":"U","NORAD_CAT_ID":60509,"ELEMENT_SET_NO":999,"REV_AT_EPOCH":9109,"BSTAR":0.00068414871,"MEAN_MOTION_DOT":0.00028883,"MEAN_MOTION_DDOT":0},{"OBJECT_NAME":"TRANSPORTER-11 OBJECT AU","OBJECT_ID":"2024-149AU","EPOCH":"2026-04-04T17:23:19.185504","MEAN_MOTION":15.38195133,"ECCENTRICITY":0.00040463,"INCLINATION":97.3739,"RA_OF_ASC_NODE":177.973,"ARG_OF_PERICENTER":173.634,"MEAN_ANOMALY":186.4957,"EPHEMERIS_TYPE":0,"CLASSIFICATION_TYPE":"U","NORAD_CAT_ID":60510,"ELEMENT_SET_NO":999,"REV_AT_EPOCH":9101,"BSTAR":0.00057184971,"MEAN_MOTION_DOT":0.00021468,"MEAN_MOTION_DDOT":0},{"OBJECT_NAME":"FLOCK 4BE-2","OBJECT_ID":"2024-149AV","EPOCH":"2026-04-04T19:18:48.316032","MEAN_MOTION":15.45881646,"ECCENTRICITY":0.00043173,"INCLINATION":97.3822,"RA_OF_ASC_NODE":180.4274,"ARG_OF_PERICENTER":178.5966,"MEAN_ANOMALY":181.5296,"EPHEMERIS_TYPE":0,"CLASSIFICATION_TYPE":"U","NORAD_CAT_ID":60511,"ELEMENT_SET_NO":999,"REV_AT_EPOCH":9114,"BSTAR":0.00125005,"MEAN_MOTION_DOT":0.0006105,"MEAN_MOTION_DDOT":0},{"OBJECT_NAME":"FLOCK 4BE-13","OBJECT_ID":"2024-149AW","EPOCH":"2026-04-04T18:33:42.668064","MEAN_MOTION":15.39893319,"ECCENTRICITY":0.00048293,"INCLINATION":97.3731,"RA_OF_ASC_NODE":178.5333,"ARG_OF_PERICENTER":161.52,"MEAN_ANOMALY":198.6222,"EPHEMERIS_TYPE":0,"CLASSIFICATION_TYPE":"U","NORAD_CAT_ID":60512,"ELEMENT_SET_NO":999,"REV_AT_EPOCH":9106,"BSTAR":0.00057945803,"MEAN_MOTION_DOT":0.00023003,"MEAN_MOTION_DDOT":0},{"OBJECT_NAME":"FLOCK 4BE-27","OBJECT_ID":"2024-149AX","EPOCH":"2026-04-04T16:03:41.142816","MEAN_MOTION":15.33190009,"ECCENTRICITY":0.00040025,"INCLINATION":97.3837,"RA_OF_ASC_NODE":176.5546,"ARG_OF_PERICENTER":185.5212,"MEAN_ANOMALY":174.5987,"EPHEMERIS_TYPE":0,"CLASSIFICATION_TYPE":"U","NORAD_CAT_ID":60513,"ELEMENT_SET_NO":999,"REV_AT_EPOCH":9087,"BSTAR":0.0004424346,"MEAN_MOTION_DOT":0.00014123,"MEAN_MOTION_DDOT":0},{"OBJECT_NAME":"FLOCK 4BE-9","OBJECT_ID":"2024-149AY","EPOCH":"2026-04-04T18:43:49.126944","MEAN_MOTION":15.38615857,"ECCENTRICITY":0.00033823,"INCLINATION":97.3801,"RA_OF_ASC_NODE":178.4638,"ARG_OF_PERICENTER":176.5957,"MEAN_ANOMALY":183.5311,"EPHEMERIS_TYPE":0,"CLASSIFICATION_TYPE":"U","NORAD_CAT_ID":60514,"ELEMENT_SET_NO":999,"REV_AT_EPOCH":9102,"BSTAR":0.00061182451,"MEAN_MOTION_DOT":0.00023295,"MEAN_MOTION_DDOT":0},{"OBJECT_NAME":"FLOCK 4BE-6","OBJECT_ID":"2024-149BA","EPOCH":"2026-04-04T18:08:27.256128","MEAN_MOTION":15.37587307,"ECCENTRICITY":0.00041224,"INCLINATION":97.3801,"RA_OF_ASC_NODE":177.9243,"ARG_OF_PERICENTER":179.146,"MEAN_ANOMALY":180.9793,"EPHEMERIS_TYPE":0,"CLASSIFICATION_TYPE":"U","NORAD_CAT_ID":60516,"ELEMENT_SET_NO":999,"REV_AT_EPOCH":9098,"BSTAR":0.00057375401,"MEAN_MOTION_DOT":0.00021119,"MEAN_MOTION_DDOT":0},{"OBJECT_NAME":"FLOCK 4BE-14","OBJECT_ID":"2024-149BB","EPOCH":"2026-04-04T05:10:25.851936","MEAN_MOTION":15.38726009,"ECCENTRICITY":0.00049926,"INCLINATION":97.371,"RA_OF_ASC_NODE":177.4659,"ARG_OF_PERICENTER":184.1465,"MEAN_ANOMALY":175.974,"EPHEMERIS_TYPE":0,"CLASSIFICATION_TYPE":"U","NORAD_CAT_ID":60517,"ELEMENT_SET_NO":999,"REV_AT_EPOCH":9094,"BSTAR":0.00079151184,"MEAN_MOTION_DOT":0.00030303,"MEAN_MOTION_DDOT":0},{"OBJECT_NAME":"FLOCK 4BE-1","OBJECT_ID":"2024-149BC","EPOCH":"2026-04-04T18:13:16.204512","MEAN_MOTION":15.401933,"ECCENTRICITY":0.00047607,"INCLINATION":97.3792,"RA_OF_ASC_NODE":179.0384,"ARG_OF_PERICENTER":181.9815,"MEAN_ANOMALY":178.1413,"EPHEMERIS_TYPE":0,"CLASSIFICATION_TYPE":"U","NORAD_CAT_ID":60518,"ELEMENT_SET_NO":999,"REV_AT_EPOCH":9106,"BSTAR":0.00065387346,"MEAN_MOTION_DOT":0.00026236,"MEAN_MOTION_DDOT":0},{"OBJECT_NAME":"FLOCK 4BE-28","OBJECT_ID":"2024-149BD","EPOCH":"2026-04-04T19:33:43.504704","MEAN_MOTION":15.42339856,"ECCENTRICITY":0.00048328,"INCLINATION":97.3754,"RA_OF_ASC_NODE":179.6005,"ARG_OF_PERICENTER":180.4894,"MEAN_ANOMALY":179.635,"EPHEMERIS_TYPE":0,"CLASSIFICATION_TYPE":"U","NORAD_CAT_ID":60519,"ELEMENT_SET_NO":999,"REV_AT_EPOCH":9112,"BSTAR":0.00054616765,"MEAN_MOTION_DOT":0.00023508,"MEAN_MOTION_DDOT":0},{"OBJECT_NAME":"IPERDRONE.0","OBJECT_ID":"2024-149BE","EPOCH":"2026-04-04T18:11:31.140384","MEAN_MOTION":15.57878172,"ECCENTRICITY":0.00038297,"INCLINATION":97.3787,"RA_OF_ASC_NODE":184.8858,"ARG_OF_PERICENTER":158.0064,"MEAN_ANOMALY":202.1356,"EPHEMERIS_TYPE":0,"CLASSIFICATION_TYPE":"U","NORAD_CAT_ID":60520,"ELEMENT_SET_NO":999,"REV_AT_EPOCH":9145,"BSTAR":0.0010005805,"MEAN_MOTION_DOT":0.00075096,"MEAN_MOTION_DDOT":0},{"OBJECT_NAME":"TRANSPORTER-11 OBJECT BF","OBJECT_ID":"2024-149BF","EPOCH":"2026-04-04T20:13:02.775936","MEAN_MOTION":15.64901563,"ECCENTRICITY":0.00039216,"INCLINATION":97.3793,"RA_OF_ASC_NODE":186.4344,"ARG_OF_PERICENTER":166.2883,"MEAN_ANOMALY":193.8484,"EPHEMERIS_TYPE":0,"CLASSIFICATION_TYPE":"U","NORAD_CAT_ID":60521,"ELEMENT_SET_NO":999,"REV_AT_EPOCH":9155,"BSTAR":0.0010121334,"MEAN_MOTION_DOT":0.00099786,"MEAN_MOTION_DDOT":0},{"OBJECT_NAME":"CONNECTA IOT-2","OBJECT_ID":"2024-149BG","EPOCH":"2026-04-04T18:09:26.307072","MEAN_MOTION":15.23337952,"ECCENTRICITY":0.00057019,"INCLINATION":97.3856,"RA_OF_ASC_NODE":174.0448,"ARG_OF_PERICENTER":209.9498,"MEAN_ANOMALY":150.1413,"EPHEMERIS_TYPE":0,"CLASSIFICATION_TYPE":"U","NORAD_CAT_ID":60522,"ELEMENT_SET_NO":999,"REV_AT_EPOCH":9071,"BSTAR":0.00034865213,"MEAN_MOTION_DOT":8.216e-5,"MEAN_MOTION_DDOT":0},{"OBJECT_NAME":"PTD-R (TYVAK-0127)","OBJECT_ID":"2024-149BH","EPOCH":"2026-04-04T19:38:38.041440","MEAN_MOTION":15.77782181,"ECCENTRICITY":0.00046,"INCLINATION":97.3754,"RA_OF_ASC_NODE":189.6396,"ARG_OF_PERICENTER":202.2421,"MEAN_ANOMALY":157.8647,"EPHEMERIS_TYPE":0,"CLASSIFICATION_TYPE":"U","NORAD_CAT_ID":60523,"ELEMENT_SET_NO":999,"REV_AT_EPOCH":9178,"BSTAR":0.00061049294,"MEAN_MOTION_DOT":0.0010316,"MEAN_MOTION_DDOT":0}]
